BEESAT-4                
1 41619U 16040W   22227.36450224  .00009775  00000+0  31382-3 0  9990
2 41619  97.2116 276.4610 0007398 261.8533  98.1870 15.32475874329744
CAS-2T & KS-1Q          
1 41847U 16066G   22227.18320506  .00000527  00000+0  88240-4 0  9992
2 41847  98.5473 291.7778 0364041  34.3672 328.0493 14.38689608302799
NAYIF-1 (EO-88)         
1 42017U 17008BX  22227.15256319  .00011825  00000+0  33696-3 0  9993
2 42017  97.2645 292.4673 0005577  52.0497 308.1251 15.36219029306088
ZHUHAI-1 02 (CAS-4B)    
1 42759U 17034B   22227.83777913  .00003370  00000+0  20405-3 0  9998
2 42759  43.0180   5.2837 0010725 303.0224 185.3648 15.12254689285349
ZHUHAI-1 01 (CAS-4A)    
1 42761U 17034D   22227.80833057  .00003121  00000+0  18947-3 0  9992
2 42761  43.0194   4.1908 0010877 303.4206 208.1260 15.12339321285347
MAX VALIER SAT          
1 42778U 17036P   22227.80908871  .00006399  00000+0  23787-3 0  9997
2 42778  97.2007 266.8884 0012557 112.8931 247.3635 15.27789485285968
RADFXSAT (FOX-1B)       
1 43017U 17073E   22227.66946813  .00003896  00000+0  29395-3 0  9997
2 43017  97.6668 119.4306 0247307 354.2868   5.5534 14.81794221255881
FOX-1D (AO-92)          
1 43137U 18004AC  22227.15857880  .00007535  00000+0  25929-3 0  9997
2 43137  97.3655 301.8156 0008550 144.9855 215.1950 15.30313165255321
DIWATA-2B               
1 43678U 18084H   22227.86092232  .00000604  00000+0  64980-4 0  9996
2 43678  97.9782   1.8504 0011243  88.8572 271.3962 14.92251841206712
ES'HAIL 2               
1 43700U 18090A   22225.69538810  .00000125  00000+0  00000+0 0  9991
2 43700   0.0248 117.5015 0001982  65.4695  55.2441  1.00268968 13606
FOX-1CLIFF (AO-95)      
1 43770U 18099N   22227.62920838  .00001315  00000+0  12000-3 0  9996
2 43770  97.6167 292.4404 0015381  78.6390 281.6558 14.96669638201865
ITASAT 1                
1 43786U 18099AE  22227.81791099  .00001483  00000+0  13428-3 0  9990
2 43786  97.6202 293.5739 0016382  71.5001 288.7999 14.96788923201932
JY1SAT (JO-97)          
1 43803U 18099AX  22227.14677633  .00001969  00000+0  17419-3 0  9996
2 43803  97.6167 292.6930 0016411  73.0061 287.2958 14.97335969201850
UWE-4                   
1 43880U 18111E   22227.70504789  .00001825  00000+0  15757-3 0  9993
2 43880  97.6638 132.9788 0013447 115.4217 244.8399 14.98424307198573
NEXUS (FO-99)           
1 43937U 19003F   22227.04632789  .00009511  00000+0  30969-3 0  9998
2 43937  97.1264 258.1529 0018083 306.9929  52.9658 15.31893322198940
PSAT2 (NO-104)          
1 44354U 19036R   22227.84723764  .00044228 -61054-5  35077-3 0  9992
2 44354  28.5253 124.7469 0211075 283.4220  74.2937 15.45293689173855
JAISAT-1                
1 44419U 19038F   22227.64233463  .00006174  00000+0  30514-3 0  9992
2 44419  97.6403 198.2874 0016951 288.5641  71.3751 15.18098623172038
DUCHIFAT-3              
1 44854U 19089C   22227.78181388  .00002978  00000+0  23238-3 0  9997
2 44854  36.9667 108.5372 0009250 336.4833  96.5463 15.01393862146851
CAS-6 (TIANQIN 1)       
1 44881U 19093C   22227.80114883  .00000453  00000+0  63958-4 0  9991
2 44881  97.8914 306.1561 0014998 358.8432   1.2746 14.81784728143560
RS-44 & BREEZE-KM R/B   
1 44909U 19096E   22227.37498089  .00000012  00000+0  31661-6 0  9999
2 44909  82.5224 191.1316 0217243 181.6721 178.3679 12.79714256123043
ORBITAL FACTORY 2 (OF-2)
1 45113U 19071C   22227.09943623  .00023191  00000+0  44230-3 0  9994
2 45113  51.6369 130.2507 0009291  36.5415 323.6205 15.48007287142458
HUSKYSAT-1 (HO-107)     
1 45119U 19071J   22227.14613130  .00019433  00000+0  38861-3 0  9990
2 45119  51.6371 130.5332 0009162  32.0797 328.0746 15.46754071142443
BY70-2                  
1 45857U 20042B   22227.84937941  .00005332  00000+0  70409-3 0  9992
2 45857  97.9538 304.1432 0008628 284.1488  75.8746 14.80414878114242
SALSAT                  
1 46495U 20068K   22227.81707062  .00001268  00000+0  94240-4 0  9999
2 46495  97.7311 169.1511 0018267  77.6925 282.6345 15.04713915103114
BY70-3                  
1 46839U 20079N   22227.91095274  .00021562  00000+0  47055-3 0  9999
2 46839  97.1948 299.3054 0006749 113.2544   4.5613 15.44211177 99413
RADFXSAT-2 (AO-109)     
1 47311U 21002C   22227.18850151  .00006662  00000+0  26474-3 0  9990
2 47311  60.6849 141.0145 0026956  20.2445 339.9706 15.26064955 87423
UVSQ-SAT                
1 47438U 21006AB  22227.61942637  .00004443  00000+0  23257-3 0  9994
2 47438  97.4327 285.4233 0013280  73.4122 286.8568 15.16259355 86245
DIY-1 (ARDUIQUBE)       
1 47963U 21022AH  22227.68728153  .00012598  00000+0  67606-3 0  9993
2 47963  97.5249 128.4055 0014339 291.3722  68.5980 15.14996333 75910
XW-3 (CAS-9)            
1 50466U 21131B   22227.85156266  .00000077  00000+0  39801-4 0  9991
2 50466  98.5786 305.0725 0003872 347.3456  12.7633 14.38515117 33453
TEVEL-3                 
1 50988U 22002E   22227.88967780  .00005372  00000+0  29053-3 0  9992
2 50988  97.4771 293.8929 0008887 209.2803 261.9603 15.15052710 32418
TEVEL-8                 
1 50989U 22002F   22227.89801431  .00005446  00000+0  29494-3 0  9995
2 50989  97.4790 293.9258 0008980 208.0715 269.6232 15.15000588 32418
TEVEL-5                 
1 50998U 22002Q   22227.89157405  .00005599  00000+0  29841-3 0  9995
2 50998  97.4772 294.0218 0010380 205.6337 265.5459 15.15542595 32422
TEVEL-6                 
1 50999U 22002R   22227.89094866  .00005582  00000+0  29750-3 0  9998
2 50999  97.4773 294.0203 0010457 205.1891 265.3822 15.15546892 32429
TEVEL-1                 
1 51013U 22002AF  22227.88855145  .00005441  00000+0  29442-3 0  9992
2 51013  97.4781 293.8712 0008806 208.5944 239.2230 15.15027589 32418
TEVEL-7                 
1 51062U 22002CG  22227.89977213  .00005616  00000+0  30410-3 0  9999
2 51062  97.4791 293.9140 0008915 207.0759 271.1169 15.14993253 32413
TEVEL-4                 
1 51063U 22002CH  22227.90010326  .00005591  00000+0  30281-3 0  9993
2 51063  97.4792 293.9112 0008883 207.4048 268.2619 15.14983903 32411
TEVEL-2                 
1 51069U 22002CP  22227.88710612  .00005420  00000+0  29317-3 0  9990
2 51069  97.4766 293.8769 0008889 209.2106 240.9480 15.15045440 32415
RS3S                    
1 53308U 98067TT  22227.74516370  .00035318  00000+0  58768-3 0  9993
2 53308  51.6422  41.4047 0002661 118.9661 241.1596 15.51692965  3963
RS1S                    
1 53309U 98067TU  22227.74462938  .00037575  00000+0  62339-3 0  9990
2 53309  51.6421  41.4004 0003256 134.3151 225.8106 15.51744336  3914
RS5S                    
1 53310U 98067TV  22227.74468001  .00035549  00000+0  59121-3 0  9993
2 53310  51.6425  41.4017 0002954 135.7789 224.3437 15.51703821  3948
RS6S                    
1 53311U 98067TW  22227.74349576  .00040016  00000+0  66056-3 0  9999
2 53311  51.6420  41.3928 0002370 111.9064 248.2178 15.51857846  3964
RS9S                    
1 53312U 98067TX  22227.87258277  .00037580  00000+0  62210-3 0  9991
2 53312  51.6424  40.7549 0003458 137.8584 222.2672 15.51805621  3924
RS12S                   
1 53313U 98067TY  22227.74309430  .00037979  00000+0  62767-3 0  9995
2 53313  51.6423  41.3906 0002975 142.6565 217.4632 15.51848086  3951
RS4S                    
1 53321U 98067TZ  22227.74558995  .00036063  00000+0  60013-3 0  9991
2 53321  51.6427  41.4086 0002778 126.2073 233.9174 15.51680364  3954
RS29S (SXC3-2110 CYCLO*)
1 53373U 22096D   22227.80253934  .00006414  00000+0  26395-3 0  9991
2 53373  97.4356 129.2219 0002925 123.2446 236.9072 15.24477762   995
RS32S (SXC3-212 MONITO*)
1 53374U 22096E   22227.80209865  .00006446  00000+0  26444-3 0  9996
2 53374  97.4356 129.2225 0003194 119.1420 241.0138 15.24581947   999
RS34S (SXC3-218 KUZBAS*)
1 53375U 22096F   22227.86761591  .00005585  00000+0  22936-3 0  9997
2 53375  97.4355 129.2879 0003205 118.1852 241.9709 15.24604970  1003
RS23S (SXC3-21 UTMN)    
1 53376U 22096G   22227.86747856  .00006108  00000+0  25029-3 0  9994
2 53376  97.4356 129.2880 0003206 116.3999 243.7567 15.24638478  1002
RS28S (SXC3-214 MIET-A*)
1 53377U 22096H   22227.86733931  .00005628  00000+0  23069-3 0  9992
2 53377  97.4357 129.2882 0003262 116.8913 243.2658 15.24667535  1001
RS26S (KAI-1)           
1 53378U 22096J   22227.80152842  .00005379  00000+0  22034-3 0  9997
2 53378  97.4356 129.2233 0003309 111.7573 248.4017 15.24707236   995
RS19S (SXC3-219 ISOI)   
1 53381U 22096M   22227.79983784  .00006155  00000+0  24865-3 0  9993
2 53381  97.4356 129.2255 0006019  76.8272 283.3637 15.25108400   996
RS21S (CUBESX-HSE-2)    
1 53383U 22096P   22227.86517891  .00005806  00000+0  23427-3 0  9990
2 53383  97.4356 129.2911 0006182  75.6137 284.5786 15.25170308  1002
RS30S (SXC3-217 SIREN)  
1 53384U 22096Q   22227.86507043  .00005340  00000+0  21556-3 0  9993
2 53384  97.4354 129.2913 0006258  74.9257 285.2673 15.25191899  1003
RS20S (GEOSCAN-EDELVEIS)
1 53385U 22096R   22227.86447468  .00006783  00000+0  27178-3 0  9996
2 53385  97.4355 129.2921 0006753  75.3323 284.8663 15.25340499  1032
RS33S (SXC3-215 VIZARD) 
1 53386U 22096S   22227.86360990  .00008055  00000+0  32007-3 0  9992
2 53386  97.4356 129.2930 0007533  75.2003 285.0070 15.25551640  1021
